ELECTRON R/B            
1 66317U 25252B   25323.65006422  .00674851  15161-3  14743-2 0  9998
2 66317  41.9951 193.8457 0193432 332.8365  26.2472 15.72229079  2169
ELECTRON KICK STAGE R/B 
1 66318U 25252C   25322.73311771  .00952657  76199-5  17069-2 0  9990
2 66318  41.9855 199.1055 0179030 117.0282 244.8970 15.77866706  2020
STARLINK-35442          
1 66319U 25253A   25323.58335648 -.00927909  00000+0 -65382-2 0  9992
2 66319  42.9981 121.2017 0001406 273.8289 180.1251 15.75716451  3300
STARLINK-34616          
1 66320U 25253B   25323.58335648 -.00909403  00000+0 -63953-2 0  9995
2 66320  42.9978 121.1958 0001903 269.0231 186.8574 15.75704076  3410
STARLINK-34615          
1 66321U 25253C   25323.58335648 -.00768013  00000+0 -53415-2 0  9998
2 66321  42.9980 121.1912 0001724 267.1463 190.7398 15.75570426  3251
STARLINK-35292          
1 66322U 25253D   25323.58335648 -.00046160  00000+0 -29873-3 0  9993
2 66322  42.9980 121.1709 0001308 267.1258 198.7008 15.75062855  3209
STARLINK-35309          
1 66323U 25253E   25323.58335648 -.00038404  00000+0 -24786-3 0  9994
2 66323  42.9982 121.1575 0001593 278.4171 193.1622 15.75054698  3205
STARLINK-35506          
1 66324U 25253F   25323.58335648 -.00081928  00000+0 -53439-3 0  9991
2 66324  42.9979 121.1761 0002059 257.7594 206.1422 15.75080660  3308
STARLINK-35504          
1 66325U 25253G   25323.58335648 -.00046298  00000+0 -29970-3 0  9996
2 66325  42.9981 121.1669 0001896 262.2177 205.5299 15.75055543  3201
STARLINK-35479          
1 66326U 25253H   25323.58335648 -.00030784  00000+0 -19794-3 0  9993
2 66326  42.9980 121.1514 0001357 278.3800 195.1193 15.75049046  3302
STARLINK-35507          
1 66327U 25253J   25323.58335648 -.00450045  00000+0 -30515-2 0  9993
2 66327  42.9981 121.1812 0002266 275.6824 186.2001 15.75286986  3306
STARLINK-35460          
1 66328U 25253K   25323.58335648 -.00046718  00000+0 -30243-3 0  9991
2 66328  42.9978 121.1361 0001542 261.0806 218.1612 15.75059452  3306
