CCSDS_OMM_VERS = 2.0
CREATION_DATE  = 
ORIGINATOR     = 

OBJECT_NAME    = ELECTRON R/B
OBJECT_ID      = 2025-252B
CENTER_NAME    = EARTH
REF_FRAME      = TEME
TIME_SYSTEM    = UTC
MEAN_ELEMENT_THEORY = SGP/SGP4

EPOCH          = 2025-11-19T15:36:05.548608
MEAN_MOTION    = 15.72229079
ECCENTRICITY   = .01934323
INCLINATION    = 41.9951
RA_OF_ASC_NODE = 193.8457
ARG_OF_PERICENTER = 332.8365
MEAN_ANOMALY   = 26.2472

EPHEMERIS_TYPE = 0
CLASSIFICATION_TYPE = U
NORAD_CAT_ID   = 66317
ELEMENT_SET_NO = 999
REV_AT_EPOCH   = 216
BSTAR          = .14742505E-2
MEAN_MOTION_DOT = .674851E-2
MEAN_MOTION_DDOT = .15160776E-3

CCSDS_OMM_VERS = 2.0
CREATION_DATE  = 
ORIGINATOR     = 

OBJECT_NAME    = ELECTRON KICK STAGE R/B
OBJECT_ID      = 2025-252C
CENTER_NAME    = EARTH
REF_FRAME      = TEME
TIME_SYSTEM    = UTC
MEAN_ELEMENT_THEORY = SGP/SGP4

EPOCH          = 2025-11-18T17:35:41.370144
MEAN_MOTION    = 15.77866706
ECCENTRICITY   = .01790304
INCLINATION    = 41.9855
RA_OF_ASC_NODE = 199.1055
ARG_OF_PERICENTER = 117.0282
MEAN_ANOMALY   = 244.8970

EPHEMERIS_TYPE = 0
CLASSIFICATION_TYPE = U
NORAD_CAT_ID   = 66318
ELEMENT_SET_NO = 999
REV_AT_EPOCH   = 202
BSTAR          = .17069346E-2
MEAN_MOTION_DOT = .952657E-2
MEAN_MOTION_DDOT = .7619906E-5

CCSDS_OMM_VERS = 2.0
CREATION_DATE  = 
ORIGINATOR     = 

OBJECT_NAME    = STARLINK-35442
OBJECT_ID      = 2025-253A
CENTER_NAME    = EARTH
REF_FRAME      = TEME
TIME_SYSTEM    = UTC
MEAN_ELEMENT_THEORY = SGP/SGP4

EPOCH          = 2025-11-19T14:00:01.999872
MEAN_MOTION    = 15.75716451
ECCENTRICITY   = .00014064
INCLINATION    = 42.9981
RA_OF_ASC_NODE = 121.2017
ARG_OF_PERICENTER = 273.8289
MEAN_ANOMALY   = 180.1251

EPHEMERIS_TYPE = 0
CLASSIFICATION_TYPE = U
NORAD_CAT_ID   = 66319
ELEMENT_SET_NO = 999
REV_AT_EPOCH   = 330
BSTAR          = -.65381671E-2
MEAN_MOTION_DOT = -.927909E-2
MEAN_MOTION_DDOT = 0

CCSDS_OMM_VERS = 2.0
CREATION_DATE  = 
ORIGINATOR     = 

OBJECT_NAME    = STARLINK-34616
OBJECT_ID      = 2025-253B
CENTER_NAME    = EARTH
REF_FRAME      = TEME
TIME_SYSTEM    = UTC
MEAN_ELEMENT_THEORY = SGP/SGP4

EPOCH          = 2025-11-19T14:00:01.999872
MEAN_MOTION    = 15.75704076
ECCENTRICITY   = .00019033
INCLINATION    = 42.9978
RA_OF_ASC_NODE = 121.1958
ARG_OF_PERICENTER = 269.0231
MEAN_ANOMALY   = 186.8574

EPHEMERIS_TYPE = 0
CLASSIFICATION_TYPE = U
NORAD_CAT_ID   = 66320
ELEMENT_SET_NO = 999
REV_AT_EPOCH   = 341
BSTAR          = -.6395344E-2
MEAN_MOTION_DOT = -.909403E-2
MEAN_MOTION_DDOT = 0

CCSDS_OMM_VERS = 2.0
CREATION_DATE  = 
ORIGINATOR     = 

OBJECT_NAME    = STARLINK-34615
OBJECT_ID      = 2025-253C
CENTER_NAME    = EARTH
REF_FRAME      = TEME
TIME_SYSTEM    = UTC
MEAN_ELEMENT_THEORY = SGP/SGP4

EPOCH          = 2025-11-19T14:00:01.999872
MEAN_MOTION    = 15.75570426
ECCENTRICITY   = .00017243
INCLINATION    = 42.9980
RA_OF_ASC_NODE = 121.1912
ARG_OF_PERICENTER = 267.1463
MEAN_ANOMALY   = 190.7398

EPHEMERIS_TYPE = 0
CLASSIFICATION_TYPE = U
NORAD_CAT_ID   = 66321
ELEMENT_SET_NO = 999
REV_AT_EPOCH   = 325
BSTAR          = -.53414799E-2
MEAN_MOTION_DOT = -.768013E-2
MEAN_MOTION_DDOT = 0

CCSDS_OMM_VERS = 2.0
CREATION_DATE  = 
ORIGINATOR     = 

OBJECT_NAME    = STARLINK-35292
OBJECT_ID      = 2025-253D
CENTER_NAME    = EARTH
REF_FRAME      = TEME
TIME_SYSTEM    = UTC
MEAN_ELEMENT_THEORY = SGP/SGP4

EPOCH          = 2025-11-19T14:00:01.999872
MEAN_MOTION    = 15.75062855
ECCENTRICITY   = .00013082
INCLINATION    = 42.9980
RA_OF_ASC_NODE = 121.1709
ARG_OF_PERICENTER = 267.1258
MEAN_ANOMALY   = 198.7008

EPHEMERIS_TYPE = 0
CLASSIFICATION_TYPE = U
NORAD_CAT_ID   = 66322
ELEMENT_SET_NO = 999
REV_AT_EPOCH   = 320
BSTAR          = -.29872643E-3
MEAN_MOTION_DOT = -.4616E-3
MEAN_MOTION_DDOT = 0

CCSDS_OMM_VERS = 2.0
CREATION_DATE  = 
ORIGINATOR     = 

OBJECT_NAME    = STARLINK-35309
OBJECT_ID      = 2025-253E
CENTER_NAME    = EARTH
REF_FRAME      = TEME
TIME_SYSTEM    = UTC
MEAN_ELEMENT_THEORY = SGP/SGP4

EPOCH          = 2025-11-19T14:00:01.999872
MEAN_MOTION    = 15.75054698
ECCENTRICITY   = .00015938
INCLINATION    = 42.9982
RA_OF_ASC_NODE = 121.1575
ARG_OF_PERICENTER = 278.4171
MEAN_ANOMALY   = 193.1622

EPHEMERIS_TYPE = 0
CLASSIFICATION_TYPE = U
NORAD_CAT_ID   = 66323
ELEMENT_SET_NO = 999
REV_AT_EPOCH   = 320
BSTAR          = -.24786165E-3
MEAN_MOTION_DOT = -.38404E-3
MEAN_MOTION_DDOT = 0

CCSDS_OMM_VERS = 2.0
CREATION_DATE  = 
ORIGINATOR     = 

OBJECT_NAME    = STARLINK-35506
OBJECT_ID      = 2025-253F
CENTER_NAME    = EARTH
REF_FRAME      = TEME
TIME_SYSTEM    = UTC
MEAN_ELEMENT_THEORY = SGP/SGP4

EPOCH          = 2025-11-19T14:00:01.999872
MEAN_MOTION    = 15.75080660
ECCENTRICITY   = .00020592
INCLINATION    = 42.9979
RA_OF_ASC_NODE = 121.1761
ARG_OF_PERICENTER = 257.7594
MEAN_ANOMALY   = 206.1422

EPHEMERIS_TYPE = 0
CLASSIFICATION_TYPE = U
NORAD_CAT_ID   = 66324
ELEMENT_SET_NO = 999
REV_AT_EPOCH   = 330
BSTAR          = -.53439325E-3
MEAN_MOTION_DOT = -.81928E-3
MEAN_MOTION_DDOT = 0

CCSDS_OMM_VERS = 2.0
CREATION_DATE  = 
ORIGINATOR     = 

OBJECT_NAME    = STARLINK-35504
OBJECT_ID      = 2025-253G
CENTER_NAME    = EARTH
REF_FRAME      = TEME
TIME_SYSTEM    = UTC
MEAN_ELEMENT_THEORY = SGP/SGP4

EPOCH          = 2025-11-19T14:00:01.999872
MEAN_MOTION    = 15.75055543
ECCENTRICITY   = .00018968
INCLINATION    = 42.9981
RA_OF_ASC_NODE = 121.1669
ARG_OF_PERICENTER = 262.2177
MEAN_ANOMALY   = 205.5299

EPHEMERIS_TYPE = 0
CLASSIFICATION_TYPE = U
NORAD_CAT_ID   = 66325
ELEMENT_SET_NO = 999
REV_AT_EPOCH   = 320
BSTAR          = -.29970011E-3
MEAN_MOTION_DOT = -.46298E-3
MEAN_MOTION_DDOT = 0

CCSDS_OMM_VERS = 2.0
CREATION_DATE  = 
ORIGINATOR     = 

OBJECT_NAME    = STARLINK-35479
OBJECT_ID      = 2025-253H
CENTER_NAME    = EARTH
REF_FRAME      = TEME
TIME_SYSTEM    = UTC
MEAN_ELEMENT_THEORY = SGP/SGP4

EPOCH          = 2025-11-19T14:00:01.999872
MEAN_MOTION    = 15.75049046
ECCENTRICITY   = .00013577
INCLINATION    = 42.9980
RA_OF_ASC_NODE = 121.1514
ARG_OF_PERICENTER = 278.3800
MEAN_ANOMALY   = 195.1193

EPHEMERIS_TYPE = 0
CLASSIFICATION_TYPE = U
NORAD_CAT_ID   = 66326
ELEMENT_SET_NO = 999
REV_AT_EPOCH   = 330
BSTAR          = -.19794032E-3
MEAN_MOTION_DOT = -.30784E-3
MEAN_MOTION_DDOT = 0

CCSDS_OMM_VERS = 2.0
CREATION_DATE  = 
ORIGINATOR     = 

OBJECT_NAME    = STARLINK-35507
OBJECT_ID      = 2025-253J
CENTER_NAME    = EARTH
REF_FRAME      = TEME
TIME_SYSTEM    = UTC
MEAN_ELEMENT_THEORY = SGP/SGP4

EPOCH          = 2025-11-19T14:00:01.999872
MEAN_MOTION    = 15.75286986
ECCENTRICITY   = .0002266
INCLINATION    = 42.9981
RA_OF_ASC_NODE = 121.1812
ARG_OF_PERICENTER = 275.6824
MEAN_ANOMALY   = 186.2001

EPHEMERIS_TYPE = 0
CLASSIFICATION_TYPE = U
NORAD_CAT_ID   = 66327
ELEMENT_SET_NO = 999
REV_AT_EPOCH   = 330
BSTAR          = -.30514711E-2
MEAN_MOTION_DOT = -.450045E-2
MEAN_MOTION_DDOT = 0

CCSDS_OMM_VERS = 2.0
CREATION_DATE  = 
ORIGINATOR     = 

OBJECT_NAME    = STARLINK-35460
OBJECT_ID      = 2025-253K
CENTER_NAME    = EARTH
REF_FRAME      = TEME
TIME_SYSTEM    = UTC
MEAN_ELEMENT_THEORY = SGP/SGP4

EPOCH          = 2025-11-19T14:00:01.999872
MEAN_MOTION    = 15.75059452
ECCENTRICITY   = .00015428
INCLINATION    = 42.9978
RA_OF_ASC_NODE = 121.1361
ARG_OF_PERICENTER = 261.0806
MEAN_ANOMALY   = 218.1612

EPHEMERIS_TYPE = 0
CLASSIFICATION_TYPE = U
NORAD_CAT_ID   = 66328
ELEMENT_SET_NO = 999
REV_AT_EPOCH   = 330
BSTAR          = -.30243251E-3
MEAN_MOTION_DOT = -.46718E-3
MEAN_MOTION_DDOT = 0

